{
  "norad_id": 65257,
  "name": "STARLINK-34966",
  "history": [
    {
      "epoch": "2026-03-28T20:23:46.069728Z",
      "apogee_km": 550.9406589741093,
      "perigee_km": 548.2191746605067,
      "latitude_deg": 1.732359858390112e-05,
      "longitude_deg": -0.318834721225659,
      "height_km": 552.8226356603985,
      "semi_major_axis_km": 6927.716916817308,
      "eccentricity": 0.00019642,
      "inclination_deg": 97.6038,
      "raan_deg": 131.8875,
      "arg_perigee_deg": 97.6325,
      "mean_anomaly_deg": 262.5125,
      "mean_motion_rev_day": 15.05627583
    },
    {
      "epoch": "2026-03-29T02:46:34.428864Z",
      "apogee_km": 550.5388825144864,
      "perigee_km": 548.6531535869735,
      "latitude_deg": 4.9279559273129104e-05,
      "longitude_deg": -96.01955675048491,
      "height_km": 552.876334672298,
      "semi_major_axis_km": 6927.73301805073,
      "eccentricity": 0.0001361,
      "inclination_deg": 97.6041,
      "raan_deg": 132.1503,
      "arg_perigee_deg": 103.3233,
      "mean_anomaly_deg": 256.8146,
      "mean_motion_rev_day": 15.05622334
    },
    {
      "epoch": "2026-03-30T02:42:05.868288Z",
      "apogee_km": 550.4327282782815,
      "perigee_km": 548.6311186980383,
      "latitude_deg": 4.701205590136507e-05,
      "longitude_deg": -94.90033472658499,
      "height_km": 552.7497969683668,
      "semi_major_axis_km": 6927.66892348816,
      "eccentricity": 0.00013003,
      "inclination_deg": 97.6037,
      "raan_deg": 133.1331,
      "arg_perigee_deg": 99.8911,
      "mean_anomaly_deg": 260.2463,
      "mean_motion_rev_day": 15.05643229
    },
    {
      "epoch": "2026-03-30T09:04:53.993280Z",
      "apogee_km": 550.4019032751412,
      "perigee_km": 548.6483734346812,
      "latitude_deg": 1.0770909597558475e-05,
      "longitude_deg": 169.39923087659366,
      "height_km": 552.7622462448046,
      "semi_major_axis_km": 6927.662138354911,
      "eccentricity": 0.00012656,
      "inclination_deg": 97.6038,
      "raan_deg": 133.3952,
      "arg_perigee_deg": 101.4397,
      "mean_anomaly_deg": 258.6972,
      "mean_motion_rev_day": 15.05645441
    }
  ]
}